STARLINK-35437          
1 66563U 25268G   25344.50003471 -.00042135  00000+0 -71621-3 0  9993
2 66563  43.0003 134.2693 0001652 268.4187 284.5789 15.50580516  4302
STARLINK-35358          
1 66564U 25268H   25344.50003471 -.00052730  00000+0 -89874-3 0  9995
2 66564  43.0002 134.2647 0001689 270.1977 284.7145 15.50587598  4268
STARLINK-35893          
1 66565U 25268J   25344.50003471 -.00050449  00000+0 -85944-3 0  9995
2 66565  43.0002 134.2596 0001709 266.1100 290.7231 15.50585350  4300
STARLINK-35871          
1 66566U 25268K   25344.50003471 -.00048461  00000+0 -82523-3 0  9997
2 66566  43.0002 134.2550 0001586 265.9252 292.8322 15.50582063  4301
STARLINK-35825          
1 66567U 25268L   25344.50003471  .00116535  00000+0  19574-2 0  9999
2 66567  43.0003 134.2501 0002094 277.0892 283.5973 15.50656061  4307
STARLINK-35803          
1 66568U 25268M   25344.50003471 -.00063070  00000+0 -10775-2 0  9991
2 66568  43.0002 134.2448 0001534 263.1521 299.4382 15.50589152  4306
STARLINK-35835          
1 66569U 25268N   25344.50003471 -.00079528  00000+0 -13626-2 0  9995
2 66569  43.0002 134.2405 0001506 265.2285 299.2744 15.50599535  4305
STARLINK-35834          
1 66570U 25268P   25344.50003471 -.00091423  00000+0 -15691-2 0  9999
2 66570  43.0003 134.2349 0001397 260.7257 305.6834 15.50609823  4306
STARLINK-35836          
1 66571U 25268Q   25344.50003471 -.00052859  00000+0 -90099-3 0  9996
2 66571  43.0003 134.2307 0001521 263.6970 304.6386 15.50587442  4307
STARLINK-35870          
1 66572U 25268R   25344.50003471 -.00073977  00000+0 -12662-2 0  9990
2 66572  43.0002 134.2265 0001450 264.3914 305.8614 15.50597914  4309
STARLINK-35650          
1 66573U 25268S   25344.50003471 -.00161407  00000+0 -27958-2 0  9991
2 66573  43.0002 134.2205 0002118 275.9492 296.2263 15.50643243  4305
STARLINK-35812          
1 66574U 25268T   25344.50003471 -.00048538  00000+0 -82642-3 0  9993
2 66574  43.0002 134.2158 0001820 266.6241 307.4632 15.50586482  4307
